IRIDIUM 82 [-]          
1 25467U 98051A   18154.27315518  .00000856  00000-0  62710-4 0  9997
2 25467  86.4037 220.2950 0179919 218.8808 139.9366 14.89889577 39101
IRIDIUM 81 [B]          
1 25468U 98051B   18154.29229606  .00000171  00000-0  49256-4 0  9992
2 25468  86.4263 235.0581 0002493  90.6938 269.4546 14.38610052 33320
IRIDIUM 80 [+]          
1 25469U 98051C   18154.32529236  .00000189  00000-0  60306-4 0  9997
2 25469  86.3992 235.2797 0002191 110.4001 316.9455 14.34224644 33160
IRIDIUM 2 [-]           
1 25527U 98066A   18154.51266401  .00000994  00000-0  47847-4 0  9990
2 25527  85.5305 184.7362 0006949 228.0310 132.0339 15.17402638 71134
IRIDIUM 86 [+]          
1 25528U 98066B   18154.53719604  .00000102  00000-0  29456-4 0  9998
2 25528  86.3980 202.8931 0001454  95.8524 264.2837 14.34220545 29722
IRIDIUM 84 [+]          
1 25530U 98066D   18154.56890534  .00000017  00000-0 -10419-5 0  9992
2 25530  86.3980 203.0503 0002408  92.5466 267.6005 14.34221290 27362
IRIDIUM 83 [+]          
1 25531U 98066E   18154.53087075  .00000105  00000-0  30583-4 0  9998
2 25531  86.3984 203.2063 0002420  93.2629 266.8844 14.34226415 24715
IRIDIUM 20 [B]          
1 25577U 98074A   18154.41248834  .00000129  00000-0  35562-4 0  9994
2 25577  86.4214 108.6135 0002763  71.5359 288.6139 14.38600415 18799
IRIDIUM 11 [B]          
1 25578U 98074B   18154.44573159  .00000018  00000-0 -69020-6 0  9995
2 25578  86.4216 108.8181 0003093  72.1435  67.3820 14.38601671 27765
IRIDIUM 14 [+]          
1 25777U 99032A   18154.36493392  .00000208  00000-0  67091-4 0  9996
2 25777  86.3974  77.1949 0002115  81.8561 278.2875 14.34217755  5027
IRIDIUM 91 [+]          
1 27372U 02005A   18154.44150970 -.00000043  00000-0 -22420-4 0  9990
2 27372  86.3954 140.4062 0002145  73.0367 287.1064 14.34212836861976
IRIDIUM 90 [-]          
1 27373U 02005B   18154.54806434  .00108504  12997-5  55051-3 0  9992
2 27373  86.4329 197.6689 0297014  31.5637 330.3052 15.38780477862765
IRIDIUM 95 [+]          
1 27375U 02005D   18154.47956729 -.00000029  00000-0 -17555-4 0  9999
2 27375  86.3950 140.3988 0002796  70.4192 289.7306 14.34217052861264
IRIDIUM 96 [-]          
1 27376U 02005E   18154.52046996  .00019225 -86301-6  20220-3 0  9995
2 27376  86.3782 161.8540 0286990 266.5100  90.3286 15.26917866867897
IRIDIUM 97 [B]          
1 27450U 02031A   18154.52612027  .00000010  00000-0 -33261-5 0  9990
2 27450  86.4234 172.0960 0002508  89.9136 270.2349 14.38601509840627
IRIDIUM 98 [+]          
1 27451U 02031B   18154.31863003  .00000186  00000-0  59209-4 0  9992
2 27451  86.3984 235.3543 0001898  96.7564 263.3847 14.34224392841636
